AMOS-4                  
1 39237U 13045A   26168.81066779  .00000002  00000+0  00000+0 0  9994
2 39237   0.0173 285.2615 0002647 135.2929 202.3528  1.00271794 46964
AEHF-3 (USA 246)        
1 39256U 13050A   26168.72975023  .00000021  00000+0  00000+0 0  9993
2 39256   5.2947  67.1795 0087801 188.0290 149.2013  1.00272731 45654
ASTRA 2E                
1 39285U 13056A   26168.83112410  .00000145  00000+0  00000+0 0  9993
2 39285   0.0563 341.6548 0002753 109.0425 143.0846  1.00272643 46429
FM-6                    
1 39360U 13058A   26168.46919676  .00000000  00000+0  00000+0 0  9997
2 39360   0.0312  44.0420 0002221 130.9080 143.3512  1.00264299 46070
RADUGA-1M 3             
1 39375U 13062A   26168.83242410  .00000145  00000+0  00000+0 0  9994
2 39375   5.9601  72.3465 0001815 266.3236 262.0702  1.00272769 46115
SES-8                   
1 39460U 13071A   26168.70646637 -.00000274  00000+0  00000+0 0  9998
2 39460   0.0254 286.4756 0002649 163.8573 164.9407  1.00269675 44439
INMARSAT 5-F1           
1 39476U 13073A   26168.85315508  .00000022  00000+0  00000+0 0  9993
2 39476   0.0170  18.2567 0000712 301.7390 315.8650  1.00271850 45585
TKSAT-1 (TUPAC KATARI)  
1 39481U 13075A   26168.80827427 -.00000199  00000+0  00000+0 0  9990
2 39481   0.0458 193.0111 0002511 236.5522  40.2561  1.00268286 45611
EXPRESS-AM5             
1 39487U 13077A   26167.85520468 -.00000283  00000+0  00000+0 0  9991
2 39487   0.0162 312.2766 0000366  20.1537  20.6101  1.00270866 46350
GSAT-14                 
1 39498U 14001A   26168.84019735 -.00000082  00000+0  00000+0 0  9998
2 39498   0.0391  94.6528 0000926 178.1428   9.7465  1.00271015 45388
THAICOM 6               
1 39500U 14002A   26168.84106402 -.00000126  00000+0  00000+0 0  9990
2 39500   0.0686 110.1672 0004287   0.2852 176.9160  1.00272183 45468
TDRS 12                 
1 39504U 14004A   26168.81737432 -.00000278  00000+0  00000+0 0  9994
2 39504   3.9783  19.1146 0003115 197.7086 302.4856  1.00266474 44289
ABS-2                   
1 39508U 14006A   26168.84549060 -.00000091  00000+0  00000+0 0  9994
2 39508   0.0148 302.0251 0003733 129.8683 213.4907  1.00270603 45280
ATHENA-FIDUS            
1 39509U 14006B   26168.83303075  .00000149  00000+0  00000+0 0  9991
2 39509   0.0301  87.5249 0001257   4.3378 151.9071  1.00272863 45098
TURKSAT 4A              
1 39522U 14007A   26168.83381078  .00000141  00000+0  00000+0 0  9998
2 39522   0.0731 286.5251 0001316  33.8615 287.8733  1.00273029 44976
EXPRESS-AT1             
1 39612U 14010A   26168.85324490  .00000018  00000+0  00000+0 0  9992
2 39612   0.2598  85.5930 0003748  44.0151 146.0608  1.00303316 44824
EXPRESS-AT2             
1 39613U 14010B   26168.83658411  .00000074  00000+0  00000+0 0  9996
2 39613   0.0172 319.7542 0000553 330.8414 332.6417  1.00270239 44504
AMAZONAS 4A             
1 39616U 14011A   26168.81087428 -.00000258  00000+0  00000+0 0  9997
2 39616   0.0557 176.8282 0003859 296.5712  10.5689  1.00269731 44720
ASTRA 5B                
1 39617U 14011B   26167.97464670  .00000134  00000+0  00000+0 0  9994
2 39617   0.0707 307.1426 0001863 147.0318 185.4434  1.00272224 44666
IRNSS-1B                
1 39635U 14017A   26168.76521992  .00000118  00000+0  00000+0 0  9991
2 39635  28.9211 240.3934 0023110 190.0096 166.2505  1.00276545 44797
LUCH-5V                 
1 39727U 14023A   26168.77300079 -.00000277  00000+0  00000+0 0  9999
2 39727   5.1342  69.7361 0001847  50.3215 158.9565  1.00274166 44366
KAZSAT-3                
1 39728U 14023B   26168.12422272  .00000057  00000+0  00000+0 0  9994
2 39728   0.0171  30.7687 0000243  82.3776 255.4558  1.00272091 42454
EUTELSAT 3B             
1 39773U 14030A   26168.82609741  .00000014  00000+0  00000+0 0  9990
2 39773   0.0665  18.5936 0003945  67.0855 120.8689  1.00270959 44074
ASIASAT 8 (AMOS-7)      
1 40107U 14046A   26168.84635071 -.00000338  00000+0  00000+0 0  9997
2 40107   0.0153  51.6105 0001286  27.7914 236.6738  1.00273546102150
ASIASAT 6               
1 40141U 14052A   26168.84929738 -.00000367  00000+0  00000+0 0  9990
2 40141   0.0312  77.6665 0000667  22.7808 231.3121  1.00270539 43086
OPTUS 10                
1 40146U 14054A   26168.63794640 -.00000152  00000+0  00000+0 0  9998
2 40146   0.0639 294.4620 0002055 148.1871 208.9128  1.00273226 43037
MEASAT-3B               
1 40147U 14054B   26168.84366403 -.00000247  00000+0  00000+0 0  9999
2 40147   0.0270  18.8240 0002989  68.5339 213.9548  1.00270998 42916
HIMAWARI-8              
1 40267U 14060A   26168.85337073 -.00000281  00000+0  00000+0 0  9999
2 40267   0.0105  24.5790 0001032  66.1744 263.2277  1.00271407 42768
IRNSS-1C                
1 40269U 14061A   26168.77066078 -.00000169  00000+0  00000+0 0  9992
2 40269   6.5191  88.9202 0022710   2.5065 175.0010  1.00269240 42693
INTELSAT 30 (IS-30)     
1 40271U 14062A   26168.32405734 -.00000155  00000+0  00000+0 0  9998
2 40271   0.0268  50.1227 0001219 328.9119 268.1517  1.00270102  6790
ARSAT 1                 
1 40272U 14062B   26168.73989029 -.00000265  00000+0  00000+0 0  9990
2 40272   0.0348  55.8275 0001697  22.1439  22.5677  1.00270111 42635
EUTELSAT 53A            
1 40277U 14064A   26167.93230904  .00000094  00000+0  00000+0 0  9998
2 40277   0.0122 300.5427 0000879 255.0236  98.2632  1.00276883 41566
