OBJECT_NAME,OBJECT_ID,EPOCH,MEAN_MOTION,ECCENTRICITY,INCLINATION,RA_OF_ASC_NODE,ARG_OF_PERICENTER,MEAN_ANOMALY,EPHEMERIS_TYPE,CLASSIFICATION_TYPE,NORAD_CAT_ID,ELEMENT_SET_NO,REV_AT_EPOCH,BSTAR,MEAN_MOTION_DOT,MEAN_MOTION_DDOT
AMOS-4,2013-045A,2026-06-17T19:27:21.697056,1.00271794,.0002647,0.0173,285.2615,135.2929,202.3528,0,U,39237,999,4696,0,.2E-7,0
AEHF-3 (USA 246),2013-050A,2026-06-17T17:30:50.419872,1.00272731,.0087801,5.2947,67.1795,188.0290,149.2013,0,U,39256,999,4565,0,.21E-6,0
ASTRA 2E,2013-056A,2026-06-17T19:56:49.122240,1.00272643,.0002753,0.0563,341.6548,109.0425,143.0846,0,U,39285,999,4642,0,.145E-5,0
FM-6,2013-058A,2026-06-17T11:15:38.600064,1.00264299,.0002221,0.0312,44.0420,130.9080,143.3512,0,U,39360,999,4607,0,0,0
RADUGA-1M 3,2013-062A,2026-06-17T19:58:41.442240,1.00272769,.0001815,5.9601,72.3465,266.3236,262.0702,0,U,39375,999,4611,0,.145E-5,0
SES-8,2013-071A,2026-06-17T16:57:18.694368,1.00269675,.0002649,0.0254,286.4756,163.8573,164.9407,0,U,39460,999,4443,0,-.274E-5,0
INMARSAT 5-F1,2013-073A,2026-06-17T20:28:32.598912,1.00271850,.0000712,0.0170,18.2567,301.7390,315.8650,0,U,39476,999,4558,0,.22E-6,0
TKSAT-1 (TUPAC KATARI),2013-075A,2026-06-17T19:23:54.896928,1.00268286,.0002511,0.0458,193.0111,236.5522,40.2561,0,U,39481,999,4561,0,-.199E-5,0
EXPRESS-AM5,2013-077A,2026-06-16T20:31:29.684352,1.00270866,.00003662,0.0162,312.2766,20.1537,20.6101,0,U,39487,999,4635,0,-.283E-5,0
GSAT-14,2014-001A,2026-06-17T20:09:53.051040,1.00271015,.0000926,0.0391,94.6528,178.1428,9.7465,0,U,39498,999,4538,0,-.82E-6,0
THAICOM 6,2014-002A,2026-06-17T20:11:07.931328,1.00272183,.0004287,0.0686,110.1672,0.2852,176.9160,0,U,39500,999,4546,0,-.126E-5,0
TDRS 12,2014-004A,2026-06-17T19:37:01.141248,1.00266474,.0003115,3.9783,19.1146,197.7086,302.4856,0,U,39504,999,4428,0,-.278E-5,0
ABS-2,2014-006A,2026-06-17T20:17:30.387840,1.00270603,.0003733,0.0148,302.0251,129.8683,213.4907,0,U,39508,999,4528,0,-.91E-6,0
ATHENA-FIDUS,2014-006B,2026-06-17T19:59:33.856800,1.00272863,.0001257,0.0301,87.5249,4.3378,151.9071,0,U,39509,999,4509,0,.149E-5,0
TURKSAT 4A,2014-007A,2026-06-17T20:00:41.251392,1.00273029,.0001316,0.0731,286.5251,33.8615,287.8733,0,U,39522,999,4497,0,.141E-5,0
EXPRESS-AT1,2014-010A,2026-06-17T20:28:40.359360,1.00303316,.0003748,0.2598,85.5930,44.0151,146.0608,0,U,39612,999,4482,0,.18E-6,0
EXPRESS-AT2,2014-010B,2026-06-17T20:04:40.867104,1.00270239,.0000553,0.0172,319.7542,330.8414,332.6417,0,U,39613,999,4450,0,.74E-6,0
AMAZONAS 4A,2014-011A,2026-06-17T19:27:39.537792,1.00269731,.0003859,0.0557,176.8282,296.5712,10.5689,0,U,39616,999,4472,0,-.258E-5,0
ASTRA 5B,2014-011B,2026-06-16T23:23:29.474880,1.00272224,.00018632,0.0707,307.1426,147.0318,185.4434,0,U,39617,999,4466,0,.134E-5,0
IRNSS-1B,2014-017A,2026-06-17T18:21:55.001088,1.00276545,.002311,28.9211,240.3934,190.0096,166.2505,0,U,39635,999,4479,0,.118E-5,0
LUCH-5V,2014-023A,2026-06-17T18:33:07.268256,1.00274166,.0001847,5.1342,69.7361,50.3215,158.9565,0,U,39727,999,4436,0,-.277E-5,0
KAZSAT-3,2014-023B,2026-06-17T02:58:52.843008,1.00272091,.0000243,0.0171,30.7687,82.3776,255.4558,0,U,39728,999,4245,0,.57E-6,0
EUTELSAT 3B,2014-030A,2026-06-17T19:49:34.816224,1.00270959,.0003945,0.0665,18.5936,67.0855,120.8689,0,U,39773,999,4407,0,.14E-6,0
ASIASAT 8 (AMOS-7),2014-046A,2026-06-17T20:18:44.701344,1.00273546,.0001286,0.0153,51.6105,27.7914,236.6738,0,U,40107,999,10215,0,-.338E-5,0
ASIASAT 6,2014-052A,2026-06-17T20:22:59.293632,1.00270539,.0000667,0.0312,77.6665,22.7808,231.3121,0,U,40141,999,4308,0,-.367E-5,0
OPTUS 10,2014-054A,2026-06-17T15:18:38.568960,1.00273226,.0002055,0.0639,294.4620,148.1871,208.9128,0,U,40146,999,4303,0,-.152E-5,0
MEASAT-3B,2014-054B,2026-06-17T20:14:52.572192,1.00270998,.0002989,0.0270,18.8240,68.5339,213.9548,0,U,40147,999,4291,0,-.247E-5,0
HIMAWARI-8,2014-060A,2026-06-17T20:28:51.231072,1.00271407,.0001032,0.0105,24.5790,66.1744,263.2277,0,U,40267,999,4276,0,-.281E-5,0
IRNSS-1C,2014-061A,2026-06-17T18:29:45.091392,1.00269240,.002271,6.5191,88.9202,2.5065,175.0010,0,U,40269,999,4269,0,-.169E-5,0
INTELSAT 30 (IS-30),2014-062A,2026-06-17T07:46:38.554176,1.00270102,.0001219,0.0268,50.1227,328.9119,268.1517,0,U,40271,999,679,0,-.155E-5,0
ARSAT 1,2014-062B,2026-06-17T17:45:26.521056,1.00270111,.0001697,0.0348,55.8275,22.1439,22.5677,0,U,40272,999,4263,0,-.265E-5,0
EUTELSAT 53A,2014-064A,2026-06-16T22:22:31.501056,1.00276883,.00008799,0.0122,300.5427,255.0236,98.2632,0,U,40277,999,4156,0,.94E-6,0
